{ "type": "FeatureCollection", "features": [{"type":"Feature","geometry":{"type":"MultiPolygon","coordinates":[[[[-73.84161375544262,40.84057562579085],[-73.8413630927009,40.84058968887972],[-73.84124052915337,40.84060145482343],[-73.83936794250523,40.84088297398455],[-73.83956700266877,40.840547227886674],[-73.83972014449351,40.839565405985425],[-73.8403028253707,40.839524314447786],[-73.84027376887703,40.83920627289531],[-73.84022375735451,40.83913683912749],[-73.84016248431297,40.83906606478373],[-73.84016698511662,40.83900415346545],[-73.84014540732231,40.83894399683787],[-73.84010873870915,40.83885211820906],[-73.84003063598274,40.83885759265055],[-73.84004441282266,40.83894435352982],[-73.84002808869033,40.838947871008166],[-73.84000970504759,40.83883809045604],[-73.84009889636495,40.83882745541149],[-73.8400687997399,40.838752040091016],[-73.84010742962903,40.83862842890292],[-73.84013531533488,40.83861417691765],[-73.83995595134354,40.8382865171443],[-73.84000264282452,40.838251975473135],[-73.83993341062431,40.83790249607492],[-73.83992026416507,40.83782066325953],[-73.83985132007375,40.83782174943244],[-73.83985578100584,40.837904957798415],[-73.83984179580861,40.83790493837945],[-73.8398283357182,40.83768717876147],[-73.83984697847082,40.83768897554651],[-73.83984907065555,40.837788111495115],[-73.83991581404842,40.83778279647426],[-73.83995029818121,40.83758389658776],[-73.83991187540823,40.83722327765152],[-73.83988714189745,40.83699113332255],[-73.83983441084662,40.83676600822814],[-73.83985909371548,40.83667828684138],[-73.83983837999756,40.836419696673495],[-73.83984235556174,40.83611624196665],[-73.83975458112083,40.83613197034208],[-73.8397790955616,40.836296305692564],[-73.8397594290159,40.83629627837064],[-73.83972573144956,40.83613392228442],[-73.8396995054642,40.83613587686091],[-73.83969302493071,40.836104999690875],[-73.83968253637161,40.83610498511208],[-73.8396824715869,40.83613187013121],[-73.83966936372369,40.83613085614697],[-73.83965902852728,40.83606711375902],[-73.8396721387774,40.83606713198441],[-73.83967473692057,40.836077092895145],[-73.83982556503256,40.83605439956689],[-73.83982172292777,40.83601655488634],[-73.83971549108531,40.83603134408777],[-73.83971159080538,40.83601739781201],[-73.83982175648923,40.83600261508282],[-73.83981792943698,40.835958795339565],[-73.83972482818312,40.8359646412494],[-73.83972485456955,40.83595368822347],[-73.83981403131426,40.8359438543119],[-73.8398102282455,40.83589007730194],[-73.83975907248129,40.835899964041566],[-73.83975779019478,40.835888013433866],[-73.83981026660724,40.83587414480519],[-73.83979992825567,40.83581139835384],[-73.83965173481708,40.83582911548933],[-73.83969574806115,40.836063181245265],[-73.83968001567382,40.83606315937771],[-73.83960850400308,40.83570805068471],[-73.83960098545313,40.83567071920134],[-73.83961672495181,40.83566775262659],[-73.83962599476892,40.8356997123698],[-73.83965573346724,40.83580223593791],[-73.83979605087632,40.83578848940358],[-73.83978960150205,40.8357446681931],[-73.83966108593472,40.83575743368853],[-73.83965849740657,40.83574348923389],[-73.83979226940998,40.83572575105306],[-73.8397792782457,40.83567594483324],[-73.83968615907075,40.83568975696207],[-73.8396822601419,40.83567581001621],[-73.8397766962272,40.83565901360236],[-73.83977542353381,40.83564308028877],[-73.83979488429709,40.835619207993766],[-73.83967394092714,40.835601209166825],[-73.83961487238449,40.835610568868496],[-73.83961491790703,40.83559168527569],[-73.83969886598135,40.83557527991609],[-73.83968659354656,40.83550917341176],[-73.8395995556951,40.83551849472761],[-73.83959649407234,40.83549960848844],[-73.83966798761821,40.83549262598214],[-73.83966494828998,40.835464297947425],[-73.8395779264688,40.8354665368511],[-73.8395779663062,40.83545001534035],[-73.83966499948544,40.83544305444942],[-73.83965271639173,40.83538166917432],[-73.83956877446101,40.83539571484771],[-73.83955638856993,40.83537681396121],[-73.83963722333964,40.83536276422787],[-73.83963111572442,40.835317910358896],[-73.83954719172142,40.835324873874484],[-73.83954412376936,40.835308347537165],[-73.83961561208253,40.83530372714653],[-73.83960332928416,40.83524234044102],[-73.83953492539601,40.83525640744663],[-73.83953185811168,40.83523988110971],[-73.83961890698458,40.83522584053743],[-73.83960659574576,40.8351762555334],[-73.83951955765815,40.835185576285944],[-73.83951337120288,40.83517376593617],[-73.8396035341357,40.835157369795944],[-73.83958501303327,40.8351054162399],[-73.83951040553073,40.83511475427433],[-73.83950733344719,40.835100588345014],[-73.83959437568129,40.83508890769466],[-73.8395758669824,40.835032232652914],[-73.83949815155427,40.835041566356374],[-73.83949818571932,40.83502740424678],[-73.83945777444482,40.835032068330044],[-73.83945783797469,40.835006106194705],[-73.83950134408605,40.83500616674647],[-73.83950138394742,40.83498964305669],[-73.83956666839917,40.83498029373487],[-73.83955747071523,40.83492835364427],[-73.839482880714,40.8349306097689],[-73.83948290918741,40.83491880806657],[-73.83955130638532,40.834907101497585],[-73.83954830741926,40.834862251945275],[-73.83947681388194,40.834869232199416],[-73.83946132668991,40.83484796874673],[-73.83961986287345,40.83482930565534],[-73.8396199311503,40.834800981937626],[-73.83947693916859,40.83481730507687],[-73.83947386622093,40.834803140317334],[-73.83961377338352,40.83477736989009],[-73.83960141648411,40.83474666897953],[-73.83947085592611,40.834763009567034],[-73.83946467367059,40.834748838636585],[-73.83960456408784,40.83473015128633],[-73.83959530895065,40.83470181460141],[-73.83946474201342,40.83472051491856],[-73.83944316529457,40.834647315687974],[-73.83941518991216,40.83464963665233],[-73.83941220244711,40.834600065106656],[-73.83948680960265,40.83459072881046],[-73.83948374126221,40.83457420079362],[-73.83959266754977,40.83456047589705],[-73.83958027782917,40.83449172358095],[-73.83953085101894,40.83436891823506],[-73.83956886221513,40.834230491946],[-73.8395910845217,40.83404168859336],[-73.83975991045783,40.8337178974942],[-73.83978358659502,40.83366724309459],[-73.83992048390338,40.83332079530102],[-73.84018151698999,40.83304342547392],[-73.84074229058749,40.832600779015465],[-73.8411267519589,40.83228698324101],[-73.84181725823889,40.83172619365365],[-73.84221334664694,40.83155050727739],[-73.84234527426415,40.83130044852209],[-73.84253111710063,40.83112048820853],[-73.8426274568155,40.83100012051891],[-73.84275884293768,40.830818484142995],[-73.84270324854305,40.83074502667007],[-73.84293731237713,40.83012140118504],[-73.84305256297327,40.83010156708176],[-73.84309408652338,40.830020970022886],[-73.84309950959468,40.8299600122979],[-73.84302116297862,40.829961587120756],[-73.84305345327958,40.82976209003963],[-73.84310691599906,40.829794139320036],[-73.84303612708139,40.8293069823435],[-73.84303394542374,40.82893498494027],[-73.84299484136973,40.82882746619912],[-73.84294598405506,40.82870291519673],[-73.84291548074067,40.82862246917889],[-73.84314198925189,40.82857922870677],[-73.84331550277636,40.82854991329419],[-73.84372188459584,40.82848125003258],[-73.84391651909009,40.828446555823554],[-73.84398668258825,40.8284341430646],[-73.84412265018632,40.82847861349219],[-73.84422370822884,40.82851167242839],[-73.84449919548747,40.8285068028935],[-73.84477452898814,40.82849096517877],[-73.8450485848797,40.82846417419272],[-73.84532022453944,40.828426538815776],[-73.84543367962537,40.82848148646672],[-73.84504569468517,40.82879939869888],[-73.84526011584107,40.828830295144215],[-73.84531509035382,40.82883821657253],[-73.84584967511434,40.82891524490243],[-73.84697813367323,40.82923140615921],[-73.84714877918678,40.829278703773284],[-73.84727881581283,40.829314745684094],[-73.84731840925329,40.82953334409841],[-73.8474700394932,40.83018909806225],[-73.84764223180659,40.83090121313306],[-73.84781216933862,40.83162160845149],[-73.84797985112382,40.83233911853516],[-73.84814688845525,40.83305984473682],[-73.84823198229235,40.833427124010306],[-73.84831390724553,40.83378071280778],[-73.84848615207768,40.834524495833705],[-73.84955890570699,40.83440887095871],[-73.85016535771041,40.834355487982535],[-73.85168459659597,40.83420105234935],[-73.85185868635897,40.83477774756866],[-73.85207005864513,40.835625303051636],[-73.85220720948374,40.836347495299485],[-73.85233148602936,40.83701052711131],[-73.85247938873317,40.837784287140224],[-73.85266480319129,40.8387800838766],[-73.85286997769747,40.83985130436984],[-73.85292044030808,40.840121505989444],[-73.85303510230456,40.840735458249156],[-73.85309460052498,40.84104696122283],[-73.85326803992784,40.84207268823564],[-73.85333524942047,40.84247015515494],[-73.85231153120056,40.84258699449559],[-73.85179886470934,40.84264763293188],[-73.85120896606446,40.84271512189993],[-73.85088863318629,40.84275300738859],[-73.85052278082638,40.8427894903043],[-73.84999194254382,40.842851628162435],[-73.84939158268894,40.84291857105611],[-73.84854530560243,40.843007225456326],[-73.84806345327976,40.84306799865136],[-73.84801855907465,40.84311415164469],[-73.84781023331234,40.84329054800114],[-73.84749010497097,40.84356161121126],[-73.84623479939151,40.844490217803454],[-73.84679350747273,40.845000117816504],[-73.84710875964632,40.84530593943056],[-73.84726985164136,40.84544403332767],[-73.84751994772796,40.84565842362893],[-73.84766748304772,40.845790497498264],[-73.8477224252749,40.84583968115672],[-73.847884919531,40.84598898052518],[-73.84721040521458,40.84648887184673],[-73.84657052841091,40.84706748181212],[-73.84635095643269,40.847278903938005],[-73.84614592440981,40.847499800913084],[-73.84595647708495,40.84772927259602],[-73.84578350495238,40.8479663578289],[-73.8456277712198,40.848210012022705],[-73.845489882373,40.84845914748934],[-73.84537026876448,40.84871262905766],[-73.84535933324847,40.849052619573456],[-73.84534656840583,40.84944948845317],[-73.84502056429113,40.850009397999386],[-73.84488576358358,40.850202725464236],[-73.84502303620948,40.849434961830404],[-73.84504985879032,40.84919158555122],[-73.84505506554582,40.84894655976693],[-73.84503845342304,40.848701540346916],[-73.84500013476227,40.848458219254766],[-73.84494053664349,40.84821822152069],[-73.8448617902042,40.84790377656629],[-73.84479920989823,40.8476488204693],[-73.84474548877351,40.84739270187272],[-73.84470066395332,40.84713559825114],[-73.8446647665091,40.846877687981696],[-73.84463782108895,40.84661914955632],[-73.84461984625959,40.84636016212012],[-73.84460522111516,40.84625369761904],[-73.84491034100746,40.84542746141717],[-73.84429152900569,40.84468254929641],[-73.84377570601245,40.84411862887515],[-73.84327655771988,40.84354180661416],[-73.84283668205732,40.84290554114895],[-73.84239308873029,40.84226986154529],[-73.84187977384828,40.841528089507314],[-73.84146101904946,40.84095609612157],[-73.84195317576985,40.84069307170187],[-73.8420182788362,40.84065827887775],[-73.84194718990825,40.84062595791335],[-73.84186514210417,40.84060876004995],[-73.84178208875092,40.84059461749633],[-73.841698226768,40.8405835640839],[-73.84161375544262,40.84057562579085]]]]},"properties":{"nta2020":"BX1001","ntaname":"Westchester Square","boroname":"Bronx"}}], "crs" : { "type": "name", "properties": { "name": "urn:ogc:def:crs:OGC:1.3:CRS84" } } }