{
  "type": "FeatureCollection",
  "name": "manhattan_boundary_simplified",
  "features": [
    {
      "type": "Feature",
      "properties": {
        "borough": "Manhattan",
        "source_note": "Simplified GIS boundary for visualization context"
      },
      "geometry": {
        "type": "Polygon",
        "coordinates": [
          [
            [-74.0186, 40.7002],
            [-74.0138, 40.7089],
            [-74.0101, 40.7172],
            [-74.0085, 40.7286],
            [-74.0064, 40.7398],
            [-74.0021, 40.7519],
            [-73.9982, 40.7628],
            [-73.9936, 40.7734],
            [-73.9882, 40.7844],
            [-73.9811, 40.7955],
            [-73.9753, 40.8044],
            [-73.9708, 40.8151],
            [-73.9685, 40.8247],
            [-73.9343, 40.8781],
            [-73.9295, 40.8732],
            [-73.9384, 40.8623],
            [-73.9437, 40.8507],
            [-73.9479, 40.8394],
            [-73.9512, 40.8291],
            [-73.9544, 40.8177],
            [-73.9576, 40.8065],
            [-73.9615, 40.7947],
            [-73.9662, 40.7831],
            [-73.9698, 40.7718],
            [-73.9729, 40.7602],
            [-73.9751, 40.7489],
            [-73.9781, 40.7381],
            [-73.9822, 40.7267],
            [-73.9886, 40.7162],
            [-73.9968, 40.7069],
            [-74.0072, 40.7004],
            [-74.0186, 40.7002]
          ]
        ]
      }
    }
  ]
}
